ONEWEB-0350             
1 49214U 21083AE  25191.54035447  .00000346  00000+0  91149-3 0  9993
2 49214  87.8953  28.1032 0001682  77.8194 282.3124 13.13471265186089
ONEWEB-0351             
1 49215U 21083AF  25191.67182918  .00000061  00000+0  11855-3 0  9994
2 49215  87.9274 342.4590 0002609  86.7625 273.3807 13.20771934191691
ONEWEB-0352             
1 49216U 21083AG  25191.59707370  .00000144  00000+0  36039-3 0  9994
2 49216  87.8956  28.1335 0002249  83.1868 276.9517 13.13471006187481
ONEWEB-0354             
1 49217U 21083AH  25191.69720015  .00000051  00000+0  93192-4 0  9998
2 49217  87.9276 342.4525 0001656  88.4137 271.7186 13.20770701191739
ONEWEB-0355             
1 49218U 21083AJ  25191.54981583  .00000158  00000+0  39659-3 0  9997
2 49218  87.8957  28.1412 0001894  80.8588 279.2756 13.13469398186052
ONEWEB-0357             
1 49219U 21083AK  25191.69404706  .00000028  00000+0  36306-4 0  9994
2 49219  87.9270 342.4587 0001977  90.8309 269.3051 13.20770436191736
ONEWEB-0332             
1 49279U 21090A   25191.52590389  .00000325  00000+0  84298-3 0  9995
2 49279  87.9041 357.6975 0002094  95.4707 264.6662 13.14503492182691
ONEWEB-0347             
1 49280U 21090B   25191.68457213 -.00000041  00000+0 -13280-3 0  9992
2 49280  87.9278 342.4696 0002086 104.2586 255.8779 13.20770693185962
